NORAD_CAT_ID,OBJECT_NAME,OBJECT_TYPE,EPOCH,MEAN_MOTION,ECCENTRICITY,INCLINATION,RA_OF_ASC_NODE,ARG_OF_PERICENTER,MEAN_ANOMALY,BSTAR,MEAN_MOTION_DOT,MEAN_MOTION_DDOT,TLE_LINE0,TLE_LINE1,TLE_LINE2,SEMIMAJOR_AXIS,PERIOD,APOGEE,PERIGEE,DECAYED
51134.0,STARLINK-3183,PAYLOAD,2024-07-31 19:21:28,15.08833678,0.0001151,53.2162,39.2519,92.5646,267.5478,-2.1926e-05,-6.37e-06,0.0,0 STARLINK-3183,1 51134U 22005AG  24213.80657498 -.00000637  00000-0 -21926-4 0  9994,2 51134  53.2162  39.2519 0001151  92.5646 267.5478 15.08833678140434,6917.9,95.438,540.561,538.968,0.0
51134.0,STARLINK-3183,PAYLOAD,2024-08-01 12:50:42,15.08853492,0.0001691,53.2193,35.9847,107.0145,253.1032,-8.9852e-05,-1.718e-05,0.0,0 STARLINK-3183,1 51134U 22005AG  24214.53520923 -.00001718  00000-0 -89852-4 0  9990,2 51134  53.2193  35.9847 0001691 107.0145 253.1032 15.08853492140545,6917.839,95.437,540.874,538.534,0.0
51134.0,STARLINK-3183,PAYLOAD,2024-08-01 17:36:51,15.08852329,0.0001261,53.219,35.0929,101.2515,258.8619,0.00045623,6.983e-05,0.0,0 STARLINK-3183,1 51134U 22005AG  24214.73393199  .00006983  00000-0  45623-3 0  9999,2 51134  53.2190  35.0929 0001261 101.2515 258.8619 15.08852329141681,6917.843,95.437,540.58,538.835,0.0
51134.0,STARLINK-3183,PAYLOAD,2024-08-02 04:44:32,15.08871696,0.0001433,53.2193,33.0125,99.8647,260.2507,0.00079527,0.00012402,0.0,0 STARLINK-3183,1 51134U 22005AG  24215.19760272  .00012402  00000-0  79527-3 0  9993,2 51134  53.2193  33.0125 0001433  99.8647 260.2507 15.08871696141758,6917.784,95.436,540.64,538.657,0.0
51134.0,STARLINK-3183,PAYLOAD,2024-08-02 12:41:29,15.08826997,0.0001872,53.2193,31.5252,100.6146,259.5057,-0.0007477,-0.00012164,0.0,0 STARLINK-3183,1 51134U 22005AG  24215.52881118 -.00012164  00000-0 -74770-3 0  9995,2 51134  53.2193  31.5252 0001872 100.6146 259.5057 15.08826997141805,6917.92,95.438,541.08,538.49,0.0
51134.0,STARLINK-3183,PAYLOAD,2024-08-02 19:03:02,15.08822,0.0001766,53.2194,30.3358,105.4094,254.7093,-0.00037478,-6.245e-05,0.0,0 STARLINK-3183,1 51134U 22005AG  24215.79377452 -.00006245  00000-0 -37478-3 0  9992,2 51134  53.2194  30.3358 0001766 105.4094 254.7093 15.08822000140736,6917.935,95.439,541.022,538.579,0.0
51134.0,STARLINK-3183,PAYLOAD,2024-08-03 04:35:21,15.08829574,0.0001786,53.2187,28.5502,94.3329,265.7867,0.00093135,0.00014561,0.0,0 STARLINK-3183,1 51134U 22005AG  24216.19122054  .00014561  00000-0  93135-3 0  9993,2 51134  53.2187  28.5502 0001786  94.3329 265.7867 15.08829574141901,6917.912,95.438,541.013,538.542,0.0
51134.0,STARLINK-3183,PAYLOAD,2024-08-03 20:29:12,15.08860627,0.0001631,53.2169,25.5748,83.1752,276.9426,0.0016644,0.00026315,0.0,0 STARLINK-3183,1 51134U 22005AG  24216.85361885  .00026315  00000-0  16644-2 0  9992,2 51134  53.2169  25.5748 0001631  83.1752 276.9426 15.08860627140891,6917.817,95.436,540.811,538.554,0.0
51134.0,STARLINK-3183,PAYLOAD,2024-08-04 12:23:04,15.08850269,0.0002347,53.2168,22.6004,88.1666,271.9595,0.0010106,0.00015837,0.0,0 STARLINK-3183,1 51134U 22005AG  24217.51601935  .00015837  00000-0  10106-2 0  9993,2 51134  53.2168  22.6004 0002347  88.1666 271.9595 15.08850269142106,6917.849,95.437,541.338,538.09,0.0
51134.0,STARLINK-3183,PAYLOAD,2024-08-04 18:44:36,15.08850941,0.0001538,53.2166,21.411,92.4076,267.7093,0.0017886,0.00028301,0.0,0 STARLINK-3183,1 51134U 22005AG  24217.78097741  .00028301  00000-0  17886-2 0  9998,2 51134  53.2166  21.4110 0001538  92.4076 267.7093 15.08850941141037,6917.847,95.437,540.776,538.648,0.0
51134.0,STARLINK-3183,PAYLOAD,2024-08-05 17:00:00,15.08825862,0.0001231,53.2169,17.2477,71.706,288.4066,0.00088555,0.00013828,0.0,0 STARLINK-3183,1 51134U 22005AG  24218.70833816  .00013828  00000-0  88555-3 0  9992,2 51134  53.2169  17.2477 0001231  71.7060 288.4066 15.08825862142284,6917.924,95.438,540.64,538.937,0.0
51134.0,STARLINK-3183,PAYLOAD,2024-08-06 13:40:01,15.08841219,0.0001474,53.2161,13.3803,75.7197,284.3959,0.00091831,0.00014358,0.0,0 STARLINK-3183,1 51134U 22005AG  24219.56946448  .00014358  00000-0  91831-3 0  9993,2 51134  53.2161  13.3803 0001474  75.7197 284.3959 15.08841219141302,6917.877,95.437,540.761,538.722,0.0
51134.0,STARLINK-3183,PAYLOAD,2024-08-06 16:50:48,15.08842605,0.0001448,53.2156,12.785,76.9394,283.176,0.00085805,0.00013395,0.0,0 STARLINK-3183,1 51134U 22005AG  24219.70194456  .00013395  00000-0  85805-3 0  9997,2 51134  53.2156  12.7850 0001448  76.9394 283.1760 15.08842605142436,6917.872,95.437,540.739,538.736,0.0
51134.0,STARLINK-3183,PAYLOAD,2024-08-07 16:41:36,15.08824574,0.0001554,53.2178,8.323,80.1559,279.9609,0.00041196,6.272e-05,0.0,0 STARLINK-3183,1 51134U 22005AG  24220.69556098  .00006272  00000-0  41196-3 0  9992,2 51134  53.2178   8.3230 0001554  80.1559 279.9609 15.08824574142587,6917.928,95.439,540.868,538.717,0.0
51134.0,STARLINK-3183,PAYLOAD,2024-08-08 13:21:37,15.0885515,0.0001413,53.2181,4.46,76.8039,283.3111,0.00095295,0.00014917,0.0,0 STARLINK-3183,1 51134U 22005AG  24221.55667921  .00014917  00000-0  95295-3 0  9990,2 51134  53.2181   4.4600 0001413  76.8039 283.3111 15.08855150141601,6917.834,95.437,540.677,538.722,0.0
51134.0,STARLINK-3183,PAYLOAD,2024-08-08 16:32:23,15.08876457,0.0001461,53.2183,3.8661,82.861,277.2549,0.0018179,0.00028791,0.0,0 STARLINK-3183,1 51134U 22005AG  24221.68915558  .00028791  00000-0  18179-2 0  9996,2 51134  53.2183   3.8661 0001461  82.8610 277.2549 15.08876457142733,6917.769,95.435,540.645,538.623,0.0
51134.0,STARLINK-3183,PAYLOAD,2024-08-09 13:12:22,15.08848516,0.0001232,53.2179,0.001,95.9471,264.1661,0.00082536,0.00012875,0.0,0 STARLINK-3183,1 51134U 22005AG  24222.55026200  .00012875  00000-0  82536-3 0  9995,2 51134  53.2179   0.0010 0001232  95.9471 264.1661 15.08848516142860,6917.854,95.437,540.572,538.867,0.0
51134.0,STARLINK-3183,PAYLOAD,2024-08-09 17:58:32,15.08849144,0.0001222,53.2185,359.1085,88.7192,271.394,0.0022487,0.0003569,0.0,0 STARLINK-3183,1 51134U 22005AG  24222.74898233  .00035690  00000-0  22487-2 0  9997,2 51134  53.2185 359.1085 0001222  88.7192 271.3940 15.08849144141784,6917.852,95.437,540.563,538.872,0.0
51134.0,STARLINK-3183,PAYLOAD,2024-08-10 13:03:09,15.08868907,0.000156,53.2175,355.5392,93.4139,266.7032,0.0021685,0.0003442,0.0,0 STARLINK-3183,1 51134U 22005AG  24223.54386181  .00034420  00000-0  21685-2 0  9999,2 51134  53.2175 355.5392 0001560  93.4139 266.7032 15.08868907143019,6917.792,95.436,540.736,538.578,0.0
51134.0,STARLINK-3183,PAYLOAD,2024-08-10 14:38:32,15.08857476,0.0001116,53.2177,355.2417,110.2025,249.9088,0.0012624,0.0001987,0.0,0 STARLINK-3183,1 51134U 22005AG  24223.61009970  .00019870  00000-0  12624-2 0  9990,2 51134  53.2177 355.2417 0001116 110.2025 249.9088 15.08857476141915,6917.827,95.436,540.464,538.92,0.0
51134.0,STARLINK-3183,PAYLOAD,2024-08-10 17:49:19,15.08853738,0.000141,53.2182,354.6454,68.321,291.7932,0.00086135,0.00013452,0.0,0 STARLINK-3183,1 51134U 22005AG  24223.74258136  .00013452  00000-0  86135-3 0  9993,2 51134  53.2182 354.6454 0001410  68.3210 291.7932 15.08853738143047,6917.838,95.437,540.679,538.728,0.0
51134.0,STARLINK-3183,PAYLOAD,2024-08-11 17:40:06,15.08840665,0.0001815,53.218,350.1883,77.8867,282.2329,0.00061718,9.548e-05,0.0,0 STARLINK-3183,1 51134U 22005AG  24224.73618409  .00009548  00000-0  61718-3 0  9997,2 51134  53.2180 350.1883 0001815  77.8867 282.2329 15.08840665143190,6917.878,95.438,540.999,538.488,0.0
51134.0,STARLINK-3183,PAYLOAD,2024-08-12 01:37:01,15.08873235,0.0001461,53.2179,348.7021,85.3149,274.801,0.0019937,0.00031613,0.0,0 STARLINK-3183,1 51134U 22005AG  24225.06737738  .00031613  00000-0  19937-2 0  9994,2 51134  53.2179 348.7021 0001461  85.3149 274.8010 15.08873235143248,6917.779,95.435,540.654,538.633,0.0
51134.0,STARLINK-3183,PAYLOAD,2024-08-12 14:20:07,15.08833997,0.0001165,53.2173,346.3197,108.0416,252.0704,0.0022166,0.0003516,0.0,0 STARLINK-3183,1 51134U 22005AG  24225.59730432  .00035160  00000-0  22166-2 0  9995,2 51134  53.2173 346.3197 0001165 108.0416 252.0704 15.08833997142216,6917.899,95.438,540.57,538.958,0.0
51134.0,STARLINK-3183,PAYLOAD,2024-08-12 20:41:39,15.08871316,0.0003349,53.2164,345.132,86.3477,273.7898,0.0018358,0.00029077,0.0,0 STARLINK-3183,1 51134U 22005AG  24225.86226026  .00029077  00000-0  18358-2 0  9992,2 51134  53.2164 345.1320 0003349  86.3477 273.7898 15.08871316142257,6917.785,95.436,541.966,537.333,0.0
51134.0,STARLINK-3183,PAYLOAD,2024-08-13 01:27:47,15.08902496,0.0003761,53.2173,344.239,74.9828,285.158,0.00266,0.00042377,0.0,0 STARLINK-3183,1 51134U 22005AG  24226.06096959  .00042377  00000-0  26600-2 0  9992,2 51134  53.2173 344.2390 0003761  74.9828 285.1580 15.08902496143390,6917.689,95.434,542.156,536.953,0.0
51134.0,STARLINK-3183,PAYLOAD,2024-08-13 14:10:53,15.08832923,0.000161,53.21,341.8626,72.3216,287.7952,-0.00021165,-3.654e-05,0.0,0 STARLINK-3183,1 51134U 22005AG  24226.59089565 -.00003654  00000-0 -21165-3 0  9994,2 51134  53.2100 341.8626 0001610  72.3216 287.7952 15.08832923142363,6917.902,95.438,540.881,538.653,0.0
51134.0,STARLINK-3183,PAYLOAD,2024-08-13 18:57:03,15.08809891,0.0001332,53.2136,340.9687,84.2735,275.8409,-0.00012049,-2.203e-05,0.0,0 STARLINK-3183,1 51134U 22005AG  24226.78961911 -.00002203  00000-0 -12049-3 0  9999,2 51134  53.2136 340.9687 0001332  84.2735 275.8409 15.08809891143508,6917.972,95.439,540.759,538.916,0.0
51134.0,STARLINK-3183,PAYLOAD,2024-08-14 12:26:18,15.0883456,0.0001653,53.2183,337.6985,77.6199,282.4978,0.0012531,0.00019708,0.0,0 STARLINK-3183,1 51134U 22005AG  24227.51827056  .00019708  00000-0  12531-2 0  9993,2 51134  53.2183 337.6985 0001653  77.6199 282.4978 15.08834560143618,6917.897,95.438,540.906,538.618,0.0
51134.0,STARLINK-3183,PAYLOAD,2024-08-14 14:01:41,15.08840975,0.0001607,53.2179,337.4018,75.8738,284.2433,0.0015823,0.00024985,0.0,0 STARLINK-3183,1 51134U 22005AG  24227.58451071  .00024985  00000-0  15823-2 0  9990,2 51134  53.2179 337.4018 0001607  75.8738 284.2433 15.08840975142517,6917.877,95.437,540.854,538.631,0.0
